[{"OBJECT_NAME":"STARLINK-31331","OBJECT_ID":"2024-027R","EPOCH":"2026-03-09T22:10:12.903744","MEAN_MOTION":15.30185758,"ECCENTRICITY":0.00012453,"INCLINATION":53.1622,"RA_OF_ASC_NODE":308.5656,"ARG_OF_PERICENTER":109.4082,"MEAN_ANOMALY":250.7053,"EPHEMERIS_TYPE":0,"CLASSIFICATION_TYPE":"U","NORAD_CAT_ID":58946,"ELEMENT_SET_NO":999,"REV_AT_EPOCH":11736,"BSTAR":2.8055981e-5,"MEAN_MOTION_DOT":4.72e-6,"MEAN_MOTION_DDOT":0},{"OBJECT_NAME":"CZ-6A DEB","OBJECT_ID":"2022-151SD","EPOCH":"2026-03-09T21:25:15.700512","MEAN_MOTION":15.24469357,"ECCENTRICITY":0.00248717,"INCLINATION":98.6538,"RA_OF_ASC_NODE":157.5128,"ARG_OF_PERICENTER":174.047,"MEAN_ANOMALY":186.1065,"EPHEMERIS_TYPE":0,"CLASSIFICATION_TYPE":"U","NORAD_CAT_ID":54940,"ELEMENT_SET_NO":999,"REV_AT_EPOCH":17680,"BSTAR":0.0087519903,"MEAN_MOTION_DOT":0.00223015,"MEAN_MOTION_DDOT":0}]
